{
  "norad_id": 53640,
  "name": "STARLINK-4597",
  "history": [
    {
      "epoch": "2026-03-28T20:45:30.252672Z",
      "apogee_km": 540.6208466505586,
      "perigee_km": 538.8345156325931,
      "latitude_deg": -6.325375131211042e-05,
      "longitude_deg": 0.13264691591247038,
      "height_km": 540.5072125734697,
      "semi_major_axis_km": 6917.864681141576,
      "eccentricity": 0.00012911,
      "inclination_deg": 53.2166,
      "raan_deg": 137.788,
      "arg_perigee_deg": 82.5238,
      "mean_anomaly_deg": 277.59,
      "mean_motion_rev_day": 15.08845139
    }
  ]
}